     3.04           N                   G                   RINEX VERSION / TYPE
Convert 2.6.7       NovAtel             20220122 020409 UTC PGM / RUN BY / DATE 
                                                            COMMENT             
GPSA    .8382D-08  -.7451D-08  -.5960D-07   .5960D-07       IONOSPHERIC CORR    
GPSB    .8806D+05  -.1638D+05  -.1966D+06   .6554D+05       IONOSPHERIC CORR    
GPUT   .1862645149D-08  .621724894D-14 147456 2093          TIME SYSTEM CORR    
    18    18  2185     7GPS                                 LEAP SECONDS        
                                                            END OF HEADER       
G12 2020 02 15 03 59 44  .151128973812D-03 -.420641299570D-11  .000000000000D+00
      .260000000000D+02  .247500000000D+02  .431660837549D-08  .871733534881D+00
      .113993883133D-05  .796802656259D-02  .486895442009D-05  .515374839211D+04
      .532784000000D+06 -.577419996262D-07  .291918652292D+01  .875443220139D-07
      .979741841677D+00  .294437500000D+03  .110572494245D+01 -.828963101069D-08
     -.496449250533D-10  .100000000000D+01  .209200000000D+04  .000000000000D+00
      .200000000000D+01  .000000000000D+00 -.125728547573D-07  .260000000000D+02
      .531816000000D+06  .400000000000D+01                                      
G05 2020 02 15 03 59 44 -.761635601521D-05 -.568434188608D-12  .000000000000D+00
      .290000000000D+02 -.170625000000D+02  .496734976720D-08 -.114993824158D+01
     -.879168510437D-06  .576883868780D-02  .622123479843D-05  .515359657478D+04
      .532784000000D+06  .987201929092D-07 -.321753391897D+00  .596046447754D-07
      .952023925515D+00  .254656250000D+03  .795429477516D+00 -.834427614402D-08
      .400016662300D-10  .100000000000D+01  .209200000000D+04  .000000000000D+00
      .200000000000D+01  .000000000000D+00 -.111758708954D-07  .290000000000D+02
      .531816000000D+06  .400000000000D+01                                      
G06 2020 02 15 04 00 00 -.208723824471D-03 -.932232069317D-11  .000000000000D+00
      .320000000000D+02 -.192500000000D+02  .420517516242D-08  .249460609093D+01
     -.763684511185D-06  .190857797861D-02  .878050923347D-05  .515375208855D+04
      .532800000000D+06  .113621354103D-06 -.134087025153D+01 -.391155481339D-07
      .978252854398D+00  .217500000000D+03 -.114061224123D+01 -.789532887214D-08
      .218580533328D-09  .100000000000D+01  .209200000000D+04  .000000000000D+00
      .200000000000D+01  .000000000000D+00  .465661287308D-08  .320000000000D+02
      .531816000000D+06  .400000000000D+01                                      
G02 2020 02 15 04 00 00 -.404995866120D-03 -.693489710102D-11  .000000000000D+00
      .830000000000D+02 -.269687500000D+02  .450911639423D-08  .251467741475D+01
     -.135228037834D-05  .198096184758D-01  .841170549393D-05  .515363735580D+04
      .532800000000D+06  .219792127609D-06 -.140681900962D+01 -.203028321266D-06
      .957702454163D+00  .208625000000D+03 -.166005264975D+01 -.775496588260D-08
      .111433213069D-09  .100000000000D+01  .209200000000D+04  .000000000000D+00
      .200000000000D+01  .000000000000D+00 -.176951289177D-07  .830000000000D+02
      .531816000000D+06  .400000000000D+01                                      
G17 2020 02 15 03 59 44  .216248445213D-03  .636646291241D-11  .000000000000D+00
      .240000000000D+02 -.568750000000D+02  .400588114674D-08 -.197042861907D+01
     -.271759927273D-05  .133769592503D-01  .766478478909D-05  .515365545654D+04
      .532784000000D+06  .245869159698D-06 -.233050740861D+01  .152736902237D-06
      .984247518180D+00  .241281250000D+03 -.165257310071D+01 -.775532304033D-08
     -.115361948145D-09  .100000000000D+01  .209200000000D+04  .000000000000D+00
      .200000000000D+01  .000000000000D+00 -.111758708954D-07  .240000000000D+02
      .531816000000D+06  .400000000000D+01                                      
G19 2020 02 15 04 00 00 -.198523979634D-03  .511590769747D-11  .000000000000D+00
      .460000000000D+02 -.557812500000D+02  .412588614543D-08  .741325924686D+00
     -.288523733616D-05  .918763352092D-02  .833347439766D-05  .515367601585D+04
      .532800000000D+06 -.987201929092D-07 -.228472134820D+01 -.782310962677D-07
      .982310582459D+00  .235031250000D+03  .156031466359D+01 -.808747973314D-08
     -.165364030933D-09  .100000000000D+01  .209200000000D+04  .000000000000D+00
      .200000000000D+01  .000000000000D+00 -.153668224812D-07  .460000000000D+02
      .531816000000D+06  .400000000000D+01                                      
G24 2020 02 15 03 59 44 -.907387584448D-05 -.568434188608D-12  .000000000000D+00
      .800000000000D+01  .632500000000D+02  .488734643474D-08  .244807328399D+01
      .327825546265D-05  .954142806586D-02  .925734639168D-05  .515366729164D+04
      .532784000000D+06 -.968575477600D-07  .174407473960D+01 -.156462192535D-06
      .936648570190D+00  .188093750000D+03  .658186253859D+00 -.820141305034D-08
      .116076263614D-09  .100000000000D+01  .209200000000D+04  .000000000000D+00
      .200000000000D+01  .000000000000D+00  .279396772385D-08  .800000000000D+01
      .531816000000D+06  .400000000000D+01                                      
G25 2020 02 15 04 00 00 -.130962580442D-04  .136424205266D-11  .000000000000D+00
      .520000000000D+02  .345937500000D+02  .462304971143D-08  .567628693065D+00
      .166147947311D-05  .909957871772D-02  .464543700218D-05  .515359296608D+04
      .532800000000D+06 -.447034835815D-07  .285157512478D+01  .100582838058D-06
      .967050395359D+00  .294375000000D+03  .896928956028D+00 -.844070873226D-08
     -.667884962947D-10  .100000000000D+01  .209200000000D+04  .000000000000D+00
      .200000000000D+01  .000000000000D+00  .558793544769D-08  .520000000000D+02
      .531876000000D+06  .400000000000D+01                                      
G25 2020 02 15 06 00 00 -.130864791572D-04  .136424205266D-11  .000000000000D+00
      .680000000000D+02  .385937500000D+02  .454804658725D-08  .161787639091D+01
      .191293656826D-05  .909998267889D-02  .478327274323D-05  .515359305954D+04
      .540000000000D+06 -.203028321266D-06  .285151397627D+01  .391155481339D-07
      .967050352935D+00  .289406250000D+03  .896911743334D+00 -.835856245339D-08
      .246438836595D-10  .100000000000D+01  .209200000000D+04  .000000000000D+00
      .200000000000D+01  .000000000000D+00  .558793544769D-08  .680000000000D+02
      .532806000000D+06  .400000000000D+01                                      
G12 2020 02 15 05 59 44  .151099171489D-03 -.420641299570D-11  .000000000000D+00
      .270000000000D+02  .325625000000D+02  .423874798944D-08  .192199980447D+01
      .159069895744D-05  .796776451170D-02  .492297112942D-05  .515374635315D+04
      .539984000000D+06 -.912696123123D-07  .291912670859D+01 -.124797224998D-06
      .979742526323D+00  .293281250000D+03  .110559331933D+01 -.811390940547D-08
      .482162941165D-10  .100000000000D+01  .209200000000D+04  .000000000000D+00
      .200000000000D+01  .000000000000D+00 -.125728547573D-07  .270000000000D+02
      .532806000000D+06  .400000000000D+01                                      
G02 2020 02 15 06 00 00 -.405045691878D-03 -.693489710102D-11  .000000000000D+00
      .880000000000D+02 -.256250000000D+02  .450875923649D-08 -.271830166831D+01
     -.116787850857D-05  .198076891247D-01  .923499464989D-05  .515364085960D+04
      .540000000000D+06  .344589352608D-06 -.140687648182D+01  .145286321640D-06
      .957704001930D+00  .194093750000D+03 -.166005563411D+01 -.779603902203D-08
      .385730352932D-09  .100000000000D+01  .209200000000D+04  .000000000000D+00
      .200000000000D+01  .000000000000D+00 -.176951289177D-07  .880000000000D+02
      .532806000000D+06  .400000000000D+01                                      
G06 2020 02 15 06 00 00 -.208791345358D-03 -.932232069317D-11  .000000000000D+00
      .800000000000D+02 -.237187500000D+02  .416481633846D-08 -.273871982514D+01
     -.108219683170D-05  .190671568271D-02  .961311161518D-05  .515375568008D+04
      .540000000000D+06 -.558793544769D-08 -.134092767399D+01  .875443220139D-07
      .978255088274D+00  .203843750000D+03 -.114034209877D+01 -.785139847083D-08
      .355014787791D-09  .100000000000D+01  .209200000000D+04  .000000000000D+00
      .200000000000D+01  .000000000000D+00  .465661287308D-08  .800000000000D+02
      .532866000000D+06  .400000000000D+01                                      
G24 2020 02 15 05 59 44 -.907806679606D-05 -.568434188608D-12  .000000000000D+00
      .900000000000D+01  .593437500000D+02  .486341686655D-08 -.278486905057D+01
      .306777656078D-05  .954246928450D-02  .970438122749D-05  .515366522217D+04
      .539984000000D+06  .372529029846D-08  .174401631650D+01 -.856816768646D-07
      .936649705414D+00  .179343750000D+03  .658131558278D+00 -.811248077453D-08
      .102147111980D-09  .100000000000D+01  .209200000000D+04  .000000000000D+00
      .200000000000D+01  .000000000000D+00  .279396772385D-08  .900000000000D+01
      .533136000000D+06  .400000000000D+01                                      
G19 2020 02 15 06 00 00 -.198486726731D-03  .511590769747D-11  .000000000000D+00
      .470000000000D+02 -.661875000000D+02  .405766901820D-08  .179142742435D+01
     -.354461371899D-05  .918842852116D-02  .807084143162D-05  .515367770004D+04
      .540000000000D+06  .987201929092D-07 -.228477926806D+01 -.189989805222D-06
      .982310379113D+00  .235343750000D+03  .156038853217D+01 -.788890003292D-08
     -.133934150324D-09  .100000000000D+01  .209200000000D+04  .000000000000D+00
      .200000000000D+01  .000000000000D+00 -.153668224812D-07  .470000000000D+02
      .533286000000D+06  .400000000000D+01                                      
G05 2020 02 15 06 00 00 -.762054696679D-05 -.568434188608D-12  .000000000000D+00
      .300000000000D+02 -.184375000000D+02  .510092675979D-08 -.974592059900D-01
     -.869855284691D-06  .576819898561D-02  .635534524918D-05  .515359502029D+04
      .540000000000D+06 -.186264514923D-07 -.321814161514D+00  .372529029846D-07
      .952023713392D+00  .249156250000D+03  .795516620620D+00 -.846213819631D-08
      .478591363823D-10  .100000000000D+01  .209200000000D+04  .000000000000D+00
      .200000000000D+01  .000000000000D+00 -.111758708954D-07  .300000000000D+02
      .534006000000D+06  .400000000000D+01                                      
G17 2020 02 15 05 59 44  .216294545680D-03  .636646291241D-11  .000000000000D+00
      .250000000000D+02 -.575937500000D+02  .414910139816D-08 -.920304373960D+00
     -.282377004623D-05  .133768223459D-01  .840611755848D-05  .515365379143D+04
      .539984000000D+06 -.169500708580D-06 -.233056474476D+01  .171363353729D-06
      .984244808856D+00  .235031250000D+03 -.165250795112D+01 -.815819696451D-08
     -.115004790411D-09  .100000000000D+01  .209200000000D+04  .000000000000D+00
      .200000000000D+01  .000000000000D+00 -.111758708954D-07  .250000000000D+02
      .534066000000D+06  .400000000000D+01                                      
